{"type":"FeatureCollection","features":[{"type":"Feature","properties":{"regionId":"mysuru-bengaluru","name":"Mysuru-Bengaluru Region","shortName":"Mysuru-Bengaluru","color":[213,81,129],"labelPoint":[77.1938,12.841],"districtIds":["29-572","29-583","29-584","29-573","29-577","29-578","29-571","29-581","29-582"],"bbox":[75.909,11.595,78.586,14.337]},"geometry":{"type":"MultiPolygon","coordinates":[[[[77.676,11.952],[77.494,11.944],[77.429,11.768],[77.293,11.809],[77.111,11.773],[77.013,11.814],[76.909,11.795],[76.835,11.655],[76.848,11.595],[76.757,11.618],[76.56,11.622],[76.511,11.704],[76.418,11.671],[76.413,11.758],[76.318,11.751],[76.207,11.861],[76.113,11.858],[76.113,11.979],[76.19,12.05],[76.133,12.191],[76.025,12.249],[76.002,12.33],[75.909,12.399],[76.019,12.571],[76.113,12.527],[76.219,12.645],[76.306,12.61],[76.343,12.656],[76.349,12.785],[76.386,12.846],[76.49,12.807],[76.578,12.847],[76.632,13.004],[76.604,13.071],[76.473,13.093],[76.473,13.149],[76.37,13.2],[76.347,13.36],[76.419,13.449],[76.364,13.547],[76.354,13.58],[76.455,13.591],[76.621,13.734],[76.765,13.782],[76.722,13.899],[76.851,13.963],[76.889,14.048],[76.948,14.095],[76.932,14.031],[77.042,13.933],[76.977,13.827],[77.065,13.743],[77.158,13.806],[77.181,13.87],[77.326,13.834],[77.433,13.844],[77.47,13.758],[77.456,13.683],[77.621,13.768],[77.782,13.819],[77.814,13.915],[77.97,13.959],[78.001,13.872],[78.115,13.863],[78.126,13.787],[78.121,13.716],[78.204,13.629],[78.196,13.569],[78.326,13.595],[78.401,13.588],[78.374,13.51],[78.364,13.362],[78.444,13.309],[78.586,13.276],[78.514,13.061],[78.467,12.975],[78.355,12.94],[78.312,12.859],[78.253,12.861],[78.231,12.76],[78.134,12.782],[78.057,12.852],[77.979,12.836],[77.929,12.891],[77.831,12.866],[77.793,12.749],[77.739,12.672],[77.601,12.668],[77.588,12.514],[77.635,12.488],[77.615,12.367],[77.551,12.292],[77.471,12.243],[77.505,12.198],[77.611,12.206],[77.747,12.155],[77.776,12.113],[77.708,12.036],[77.676,11.952]]],[[[77.409,14.337],[77.479,14.292],[77.504,14.157],[77.393,14.175],[77.39,14.017],[77.435,13.948],[77.398,13.907],[77.322,14.031],[77.173,14.013],[77.028,14.062],[77.003,14.198],[77.005,14.235],[77.117,14.226],[77.138,14.337],[77.364,14.275],[77.409,14.337]]]]}},{"type":"Feature","properties":{"regionId":"north-karnataka","name":"Northern Karnataka Region","shortName":"North Karnataka","color":[201,133,0],"labelPoint":[75.9767,16.002],"districtIds":["29-555","29-556","29-557","29-561","29-562","29-564","29-565","29-558","29-579","29-560","29-559","29-580","29-566","29-567"],"bbox":[74.118,13.58,77.686,18.442]},"geometry":{"type":"Polygon","coordinates":[[[75.953,13.816],[75.878,13.811],[75.806,14.098],[75.604,14.057],[75.491,14.105],[75.399,14.117],[75.532,14.278],[75.349,14.388],[75.346,14.486],[75.265,14.58],[75.188,14.623],[75.051,14.649],[75.042,14.774],[75.103,14.934],[75.083,15.075],[74.889,15.051],[74.832,15.136],[74.91,15.251],[74.889,15.308],[74.739,15.415],[74.613,15.359],[74.545,15.416],[74.427,15.398],[74.422,15.463],[74.343,15.518],[74.278,15.522],[74.237,15.668],[74.118,15.651],[74.122,15.72],[74.21,15.781],[74.239,15.745],[74.346,15.764],[74.387,15.904],[74.464,16.039],[74.372,16.079],[74.48,16.148],[74.48,16.249],[74.373,16.262],[74.317,16.326],[74.332,16.454],[74.315,16.555],[74.545,16.636],[74.571,16.555],[74.63,16.583],[74.696,16.715],[74.85,16.773],[74.919,16.773],[74.902,16.863],[75.089,16.952],[75.182,16.843],[75.265,16.863],[75.28,16.956],[75.341,16.956],[75.465,16.989],[75.529,16.97],[75.665,16.979],[75.673,17.116],[75.626,17.173],[75.655,17.274],[75.604,17.305],[75.574,17.384],[75.633,17.477],[75.814,17.373],[75.895,17.401],[75.932,17.323],[76.075,17.337],[76.23,17.366],[76.383,17.315],[76.372,17.436],[76.331,17.47],[76.332,17.597],[76.429,17.643],[76.49,17.66],[76.523,17.76],[76.656,17.718],[76.685,17.682],[76.714,17.781],[76.791,17.826],[76.74,17.899],[76.776,17.877],[76.919,17.916],[76.906,18.009],[76.953,18.041],[76.921,18.118],[76.951,18.188],[77.065,18.151],[77.247,18.371],[77.265,18.423],[77.317,18.442],[77.413,18.393],[77.409,18.302],[77.465,18.262],[77.551,18.292],[77.601,18.276],[77.563,18.196],[77.598,18.093],[77.548,18.056],[77.656,17.969],[77.586,17.907],[77.537,17.78],[77.453,17.694],[77.444,17.584],[77.686,17.511],[77.513,17.43],[77.484,17.355],[77.38,17.223],[77.364,17.158],[77.464,17.11],[77.497,17.043],[77.467,16.955],[77.459,16.885],[77.476,16.788],[77.426,16.721],[77.453,16.616],[77.416,16.518],[77.242,16.474],[77.288,16.409],[77.415,16.368],[77.49,16.386],[77.594,16.343],[77.5,16.222],[77.514,15.928],[77.248,15.965],[77.072,15.91],[77.026,15.837],[77.083,15.66],[77.031,15.635],[77.033,15.436],[77.063,15.328],[77.152,15.293],[77.126,15.227],[77.156,15.14],[77.114,15.034],[76.985,15.015],[76.8,15.096],[76.76,14.989],[76.867,14.97],[76.837,14.791],[76.776,14.681],[76.765,14.602],[76.806,14.531],[76.901,14.49],[76.884,14.348],[77.005,14.235],[77.003,14.198],[76.895,14.168],[76.948,14.095],[76.889,14.048],[76.851,13.963],[76.722,13.899],[76.765,13.782],[76.621,13.734],[76.455,13.591],[76.354,13.58],[76.273,13.606],[76.219,13.713],[76.149,13.732],[76.098,13.864],[76.029,13.899],[75.953,13.816]]]}},{"type":"Feature","properties":{"regionId":"karavali","name":"Karavali Coastal Region","shortName":"Karavali","color":[57,135,229],"labelPoint":[74.5777,14.041],"districtIds":["29-575","29-569","29-563"],"bbox":[74.086,12.484,75.67,15.522]},"geometry":{"type":"Polygon","coordinates":[[[75.294,13.125],[75.379,13.18],[75.407,13.112],[75.516,13.065],[75.514,12.979],[75.558,12.916],[75.621,12.855],[75.615,12.797],[75.667,12.697],[75.643,12.632],[75.67,12.551],[75.615,12.51],[75.493,12.484],[75.28,12.524],[75.112,12.681],[74.982,12.738],[74.869,12.759],[74.823,12.847],[74.717,13.314],[74.67,13.635],[74.583,13.926],[74.515,13.987],[74.47,14.189],[74.442,14.224],[74.395,14.418],[74.355,14.509],[74.269,14.627],[74.263,14.719],[74.118,14.785],[74.086,14.901],[74.202,14.926],[74.297,15.041],[74.272,15.097],[74.317,15.187],[74.26,15.242],[74.326,15.283],[74.323,15.368],[74.275,15.392],[74.251,15.492],[74.278,15.522],[74.343,15.518],[74.422,15.463],[74.427,15.398],[74.545,15.416],[74.613,15.359],[74.739,15.415],[74.889,15.308],[74.91,15.251],[74.832,15.136],[74.889,15.051],[75.083,15.075],[75.103,14.934],[75.042,14.774],[75.051,14.649],[75.023,14.568],[74.901,14.53],[74.879,14.436],[74.948,14.399],[74.89,14.216],[74.792,14.227],[74.665,14.185],[74.638,14.095],[74.667,13.987],[74.711,13.905],[74.84,13.897],[74.908,13.857],[74.928,13.769],[74.999,13.738],[75.035,13.567],[75.141,13.461],[75.112,13.357],[75.167,13.203],[75.294,13.125]]]}},{"type":"Feature","properties":{"regionId":"malnad","name":"Malnad Region","shortName":"Malnad","color":[0,131,0],"labelPoint":[75.749,13.28],"districtIds":["29-568","29-570","29-576","29-574"],"bbox":[74.638,11.931,76.632,14.649]},"geometry":{"type":"Polygon","coordinates":[[[76.002,12.33],[76.025,12.249],[76.133,12.191],[76.19,12.05],[76.113,11.979],[76.003,11.931],[75.87,11.952],[75.794,12.056],[75.636,12.149],[75.577,12.157],[75.485,12.29],[75.415,12.29],[75.422,12.373],[75.366,12.412],[75.416,12.499],[75.493,12.484],[75.615,12.51],[75.67,12.551],[75.643,12.632],[75.667,12.697],[75.615,12.797],[75.621,12.855],[75.558,12.916],[75.514,12.979],[75.516,13.065],[75.407,13.112],[75.379,13.18],[75.294,13.125],[75.167,13.203],[75.112,13.357],[75.141,13.461],[75.035,13.567],[74.999,13.738],[74.928,13.769],[74.908,13.857],[74.84,13.897],[74.711,13.905],[74.667,13.987],[74.638,14.095],[74.665,14.185],[74.792,14.227],[74.89,14.216],[74.948,14.399],[74.879,14.436],[74.901,14.53],[75.023,14.568],[75.051,14.649],[75.188,14.623],[75.265,14.58],[75.346,14.486],[75.349,14.388],[75.532,14.278],[75.399,14.117],[75.491,14.105],[75.604,14.057],[75.806,14.098],[75.878,13.811],[75.953,13.816],[76.029,13.899],[76.098,13.864],[76.149,13.732],[76.219,13.713],[76.273,13.606],[76.354,13.58],[76.364,13.547],[76.419,13.449],[76.347,13.36],[76.37,13.2],[76.473,13.149],[76.473,13.093],[76.604,13.071],[76.632,13.004],[76.578,12.847],[76.49,12.807],[76.386,12.846],[76.349,12.785],[76.343,12.656],[76.306,12.61],[76.219,12.645],[76.113,12.527],[76.019,12.571],[75.909,12.399],[76.002,12.33]]]}}]}